QIANFAN-89              
1 63175U 25046S   25273.84888876  .00000308  00000+0  45825-3 0  9992
2 63175  88.9821 327.5761 0015261 343.4620  16.6031 13.50971800 37560
QIANFAN-90              
1 63176U 25046T   25273.28511843  .00000179  00000+0  25920-3 0  9998
2 63176  88.9822 327.6064 0012224 345.0181  15.0607 13.50982845 37502
